NORAD_CAT_ID,OBJECT_NAME,OBJECT_TYPE,EPOCH,MEAN_MOTION,ECCENTRICITY,INCLINATION,RA_OF_ASC_NODE,ARG_OF_PERICENTER,MEAN_ANOMALY,BSTAR,MEAN_MOTION_DOT,MEAN_MOTION_DDOT,TLE_LINE0,TLE_LINE1,TLE_LINE2,SEMIMAJOR_AXIS,PERIOD,APOGEE,PERIGEE,DECAYED
52138.0,STARLINK-3723,PAYLOAD,2024-06-13 22:35:57,15.08825126,0.0001443,53.2191,34.1289,107.237,252.878,-0.00036251,-6.05e-05,0.0,0 STARLINK-3723,1 52138U 22029BC  24165.94163797 -.00006050  00000-0 -36251-3 0  9991,2 52138  53.2191  34.1289 0001443 107.2370 252.8780 15.08825126125267,6917.926,95.438,540.789,538.793,0.0
52138.0,STARLINK-3723,PAYLOAD,2024-06-14 14:29:49,15.08827621,0.0001489,53.2174,31.1535,78.6745,281.4415,-0.0003049,-5.136e-05,0.0,0 STARLINK-3723,1 52138U 22029BC  24166.60404162 -.00005136  00000-0 -30490-3 0  9992,2 52138  53.2174  31.1535 0001489  78.6745 281.4415 15.08827621125362,6917.918,95.438,540.813,538.753,0.0
52138.0,STARLINK-3723,PAYLOAD,2024-06-14 22:26:46,15.08787933,0.0001349,53.218,29.6724,111.3361,248.7775,-0.00078675,-0.00012769,0.0,0 STARLINK-3723,1 52138U 22029BC  24166.93526603 -.00012769  00000-0 -78675-3 0  9990,2 52138  53.2180  29.6724 0001349 111.3361 248.7775 15.08787933125417,6918.04,95.441,540.838,538.971,0.0
52138.0,STARLINK-3723,PAYLOAD,2024-06-15 07:59:04,15.08822551,0.000116,53.2178,27.8839,96.8536,263.2588,-0.00018996,-3.308e-05,0.0,0 STARLINK-3723,1 52138U 22029BC  24167.33269661 -.00003308  00000-0 -18996-3 0  9992,2 52138  53.2178  27.8839 0001160  96.8536 263.2588 15.08822551125479,6917.934,95.439,540.601,538.996,0.0
52138.0,STARLINK-3723,PAYLOAD,2024-06-15 22:17:33,15.08836035,0.000138,53.2175,25.2093,83.8858,276.2291,0.0006164,9.535e-05,0.0,0 STARLINK-3723,1 52138U 22029BC  24167.92885815  .00009535  00000-0  61640-3 0  9992,2 52138  53.2175  25.2093 0001380  83.8858 276.2291 15.08836035125564,6917.893,95.438,540.712,538.803,0.0
52138.0,STARLINK-3723,PAYLOAD,2024-06-16 14:11:24,15.0885506,0.000161,53.2161,22.2375,77.4325,282.6847,0.00075459,0.00011747,0.0,0 STARLINK-3723,1 52138U 22029BC  24168.59125727  .00011747  00000-0  75459-3 0  9996,2 52138  53.2161  22.2375 0001610  77.4325 282.6847 15.08855060125661,6917.834,95.437,540.813,538.586,0.0
52138.0,STARLINK-3723,PAYLOAD,2024-06-16 20:32:57,15.08847658,0.0001524,53.2188,21.0448,94.998,265.1187,0.00050613,7.778e-05,0.0,0 STARLINK-3723,1 52138U 22029BC  24168.85621741  .00007778  00000-0  50613-3 0  9996,2 52138  53.2188  21.0448 0001524  94.9980 265.1187 15.08847658125705,6917.857,95.437,540.776,538.668,0.0
52138.0,STARLINK-3723,PAYLOAD,2024-06-17 20:23:43,15.08851679,0.000178,53.2175,16.5828,97.2405,262.8789,0.00012735,1.74e-05,0.0,0 STARLINK-3723,1 52138U 22029BC  24169.84980857  .00001740  00000-0  12735-3 0  9998,2 52138  53.2175  16.5828 0001780  97.2405 262.8789 15.08851679125850,6917.845,95.437,540.941,538.478,0.0
52138.0,STARLINK-3723,PAYLOAD,2024-06-17 23:34:29,15.08847828,0.0001795,53.221,15.9895,100.5306,259.5889,-3.9039e-06,-3.5e-06,0.0,0 STARLINK-3723,1 52138U 22029BC  24169.98228967 -.00000350  00000-0 -39039-5 0  9996,2 52138  53.2210  15.9895 0001795 100.5306 259.5889 15.08847828125878,6917.856,95.437,540.963,538.48,0.0
52138.0,STARLINK-3723,PAYLOAD,2024-06-18 20:14:30,15.08846662,0.0001398,53.2186,12.1245,89.5416,270.5737,5.6095e-05,6.05e-06,0.0,0 STARLINK-3723,1 52138U 22029BC  24170.84340711  .00000605  00000-0  56095-4 0  9996,2 52138  53.2186  12.1245 0001398  89.5416 270.5737 15.08846662126001,6917.86,95.437,540.692,538.758,0.0
52138.0,STARLINK-3723,PAYLOAD,2024-06-19 13:43:45,15.08839166,0.0001389,53.2182,8.8537,89.3514,270.7637,9.6508e-05,1.248e-05,0.0,0 STARLINK-3723,1 52138U 22029BC  24171.57205011  .00001248  00000-0  96508-4 0  9997,2 52138  53.2182   8.8537 0001389  89.3514 270.7637 15.08839166126114,6917.883,95.438,540.709,538.787,0.0
52138.0,STARLINK-3723,PAYLOAD,2024-06-19 20:05:17,15.08833987,0.0001331,53.2179,7.6638,87.9553,272.1592,-7.0972e-06,-4.01e-06,0.0,0 STARLINK-3723,1 52138U 22029BC  24171.83701252 -.00000401  00000-0 -70972-5 0  9994,2 52138  53.2179   7.6638 0001331  87.9553 272.1592 15.08833987126158,6917.899,95.438,540.685,538.843,0.0
52138.0,STARLINK-3723,PAYLOAD,2024-06-20 13:34:32,15.0883696,0.0001452,53.2197,4.3998,111.9865,248.1281,2.117e-05,4.9e-07,0.0,0 STARLINK-3723,1 52138U 22029BC  24172.56565587  .00000049  00000-0  21170-4 0  9995,2 52138  53.2197   4.3998 0001452 111.9865 248.1281 15.08836960126263,6917.89,95.438,540.759,538.75,0.0
52138.0,STARLINK-3723,PAYLOAD,2024-06-20 19:56:05,15.08836246,0.000149,53.2199,3.2102,109.9992,250.1161,4.6288e-05,4.49e-06,0.0,0 STARLINK-3723,1 52138U 22029BC  24172.83061607  .00000449  00000-0  46288-4 0  9990,2 52138  53.2199   3.2102 0001490 109.9992 250.1161 15.08836246126302,6917.892,95.438,540.788,538.726,0.0
52138.0,STARLINK-3723,PAYLOAD,2024-06-21 13:25:19,15.08838635,0.000143,53.2203,359.9364,107.2509,252.864,0.00018851,2.713e-05,0.0,0 STARLINK-3723,1 52138U 22029BC  24173.55925254  .00002713  00000-0  18851-3 0  9997,2 52138  53.2203 359.9364 0001430 107.2509 252.8640 15.08838635126415,6917.885,95.438,540.739,538.76,0.0
52138.0,STARLINK-3723,PAYLOAD,2024-06-21 19:46:52,15.08838105,0.0001416,53.2198,358.7466,105.7109,254.4039,0.00016005,2.26e-05,0.0,0 STARLINK-3723,1 52138U 22029BC  24173.82421417  .00002260  00000-0  16005-3 0  9995,2 52138  53.2198 358.7466 0001416 105.7109 254.4039 15.08838105126457,6917.886,95.438,540.731,538.772,0.0
52138.0,STARLINK-3723,PAYLOAD,2024-06-22 11:40:43,15.08837607,0.0001309,53.2189,355.7713,95.3097,264.8044,0.00014732,2.057e-05,0.0,0 STARLINK-3723,1 52138U 22029BC  24174.48661586  .00002057  00000-0  14732-3 0  9990,2 52138  53.2189 355.7713 0001309  95.3097 264.8044 15.08837607126558,6917.888,95.438,540.658,538.847,0.0
52138.0,STARLINK-3723,PAYLOAD,2024-06-22 21:13:02,15.08841591,0.0001201,53.2183,353.9853,90.2894,269.8236,0.00011873,1.602e-05,0.0,0 STARLINK-3723,1 52138U 22029BC  24174.88405517  .00001602  00000-0  11873-3 0  9992,2 52138  53.2183 353.9853 0001201  90.2894 269.8236 15.08841591126619,6917.876,95.437,540.571,538.91,0.0
52138.0,STARLINK-3723,PAYLOAD,2024-06-23 11:31:30,15.08843279,0.0001248,53.2183,351.3088,92.7187,267.3948,9.5856e-05,1.238e-05,0.0,0 STARLINK-3723,1 52138U 22029BC  24175.48021415  .00001238  00000-0  95856-4 0  9999,2 52138  53.2183 351.3088 0001248  92.7187 267.3948 15.08843279126702,6917.87,95.437,540.599,538.872,0.0
52138.0,STARLINK-3723,PAYLOAD,2024-06-23 17:53:02,15.08844651,0.0001246,53.2183,350.1195,92.7081,267.4053,9.8551e-05,1.281e-05,0.0,0 STARLINK-3723,1 52138U 22029BC  24175.74517255  .00001281  00000-0  98551-4 0  9993,2 52138  53.2183 350.1195 0001246  92.7081 267.4053 15.08844651126746,6917.866,95.437,540.593,538.869,0.0
52138.0,STARLINK-3723,PAYLOAD,2024-06-24 11:22:17,15.08840316,0.0001182,53.2179,346.8481,103.0894,257.023,7.2111e-05,8.6e-06,0.0,0 STARLINK-3723,1 52138U 22029BC  24176.47381501  .00000860  00000-0  72111-4 0  9993,2 52138  53.2179 346.8481 0001182 103.0894 257.0230 15.08840316126856,6917.879,95.438,540.562,538.927,0.0
52138.0,STARLINK-3723,PAYLOAD,2024-06-24 17:43:50,15.08838328,0.0001165,53.2175,345.6579,102.3433,257.769,4.0705e-05,3.6e-06,0.0,0 STARLINK-3723,1 52138U 22029BC  24176.73877701  .00000360  00000-0  40705-4 0  9993,2 52138  53.2175 345.6579 0001165 102.3433 257.7690 15.08838328126890,6917.885,95.438,540.556,538.945,0.0
52138.0,STARLINK-3723,PAYLOAD,2024-06-25 14:23:51,15.08840677,0.0001162,53.2172,341.7924,94.7487,265.3638,5.1884e-05,5.38e-06,0.0,0 STARLINK-3723,1 52138U 22029BC  24177.59989590  .00000538  00000-0  51884-4 0  9995,2 52138  53.2172 341.7924 0001162  94.7487 265.3638 15.08840677127021,6917.878,95.438,540.547,538.939,0.0
52138.0,STARLINK-3723,PAYLOAD,2024-06-25 17:34:37,15.08843798,0.0001334,53.2182,341.1983,94.8615,265.2529,7.3156e-05,8.77e-06,0.0,0 STARLINK-3723,1 52138U 22029BC  24177.73237342  .00000877  00000-0  73156-4 0  9994,2 52138  53.2182 341.1983 0001334  94.8615 265.2529 15.08843798127043,6917.869,95.437,540.657,538.811,0.0
52138.0,STARLINK-3723,PAYLOAD,2024-06-27 17:16:11,15.0883751,0.0001239,53.2177,332.2776,88.7673,271.3461,-6.1517e-06,-3.86e-06,0.0,0 STARLINK-3723,1 52138U 22029BC  24179.71958146 -.00000386  00000-0 -61517-5 0  9992,2 52138  53.2177 332.2776 0001239  88.7673 271.3461 15.08837510127349,6917.888,95.438,540.61,538.896,0.0
52138.0,STARLINK-3723,PAYLOAD,2024-06-28 02:48:29,15.08848764,0.000126,53.2198,330.4918,79.258,280.8554,7.8015e-05,9.54e-06,0.0,0 STARLINK-3723,1 52138U 22029BC  24180.11700990  .00000954  00000-0  78015-4 0  9999,2 52138  53.2198 330.4918 0001260  79.2580 280.8554 15.08848764127404,6917.854,95.437,540.59,538.847,0.0
52138.0,STARLINK-3723,PAYLOAD,2024-06-28 13:56:12,15.08833931,0.0001227,53.2173,328.4102,80.0291,280.084,6.5071e-05,7.48e-06,0.0,0 STARLINK-3723,1 52138U 22029BC  24180.58070206  .00000748  00000-0  65071-4 0  9999,2 52138  53.2173 328.4102 0001227  80.0291 280.0840 15.08833931127478,6917.899,95.438,540.613,538.915,0.0
52138.0,STARLINK-3723,PAYLOAD,2024-06-28 15:31:35,15.08834839,0.0001225,53.2166,328.1123,76.2994,283.8135,9.1828e-05,1.174e-05,0.0,0 STARLINK-3723,1 52138U 22029BC  24180.64694031  .00001174  00000-0  91828-4 0  9997,2 52138  53.2166 328.1123 0001225  76.2994 283.8135 15.08834839127482,6917.896,95.438,540.609,538.914,0.0
52138.0,STARLINK-3723,PAYLOAD,2024-06-29 02:39:15,15.08861096,0.0001163,53.2173,326.0317,59.9383,300.1724,0.00027727,4.13e-05,0.0,0 STARLINK-3723,1 52138U 22029BC  24181.11059636  .00004130  00000-0  27727-3 0  9997,2 52138  53.2173 326.0317 0001163  59.9383 300.1724 15.08861096127553,6917.816,95.436,540.485,538.876,0.0
52138.0,STARLINK-3723,PAYLOAD,2024-06-29 09:00:51,15.08824655,0.0002168,53.2177,324.8429,77.3573,282.7662,-3.6792e-05,-8.74e-06,0.0,0 STARLINK-3723,1 52138U 22029BC  24181.37559276 -.00000874  00000-0 -36792-4 0  9996,2 52138  53.2177 324.8429 0002168  77.3573 282.7662 15.08824655127598,6917.927,95.439,541.292,538.292,0.0
